{
  "type": "FeatureCollection",
  "features": [
    {
      "type": "Feature",
      "properties": {
        "norad_id": 39773,
        "name": "EUTELSAT 3B",
        "group": "eutelsat",
        "lat": -0.033653073998744815,
        "lon": -28.701632299609688,
        "alt_km": 35787.78544784599,
        "timestamp": "2025-12-27T15:27:10.814921+00:00",
        "meta_object_name": "EUTELSAT 3B",
        "meta_object_id": "2014-030A",
        "meta_epoch": "2025-12-27T06:13:38.544960",
        "meta_mean_motion": 1.00270423,
        "meta_eccentricity": 0.00042878,
        "meta_inclination": 0.06,
        "meta_ra_of_asc_node": 354.4554,
        "meta_arg_of_pericenter": 242.3493,
        "meta_mean_anomaly": 315.6906,
        "meta_ephemeris_type": 0,
        "meta_classification_type": "U",
        "meta_norad_cat_id": 39773,
        "meta_element_set_no": 999,
        "meta_rev_at_epoch": 4234,
        "meta_bstar": 0,
        "meta_mean_motion_dot": 4.2e-07,
        "meta_mean_motion_ddot": 0,
        "tle_line1": "1 39773U 14030A   25361.25947390  .00000042  00000+0  00000+0 0  9997",
        "tle_line2": "2 39773   0.0600 354.4554 0004287 242.3493 315.6906  1.00270423 42347"
      },
      "geometry": {
        "type": "Point",
        "coordinates": [
          -28.701632299609688,
          -0.033653073998744815
        ]
      }
    },
    {
      "type": "Feature",
      "properties": {
        "norad_id": 40425,
        "name": "EUTELSAT 115 WEST B",
        "group": "eutelsat",
        "lat": 0.003068290969309877,
        "lon": -146.73797368312398,
        "alt_km": 35785.84333112248,
        "timestamp": "2025-12-27T15:27:10.814946+00:00",
        "meta_object_name": "EUTELSAT 115 WEST B",
        "meta_object_id": "2015-010B",
        "meta_epoch": "2025-12-26T05:44:38.581152",
        "meta_mean_motion": 1.00273604,
        "meta_eccentricity": 7.8e-06,
        "meta_inclination": 0.0077,
        "meta_ra_of_asc_node": 147.8651,
        "meta_arg_of_pericenter": 258.8043,
        "meta_mean_anomaly": 19.571,
        "meta_ephemeris_type": 0,
        "meta_classification_type": "U",
        "meta_norad_cat_id": 40425,
        "meta_element_set_no": 999,
        "meta_rev_at_epoch": 3965,
        "meta_bstar": 0,
        "meta_mean_motion_dot": -3e-08,
        "meta_mean_motion_ddot": 0,
        "tle_line1": "1 40425U 15010B   25360.23933543 -.00000003  00000+0  00000+0 0  9992",
        "tle_line2": "2 40425   0.0077 147.8651 0000078 258.8043  19.5710  1.00273604 39657"
      },
      "geometry": {
        "type": "Point",
        "coordinates": [
          -146.73797368312398,
          0.003068290969309877
        ]
      }
    },
    {
      "type": "Feature",
      "properties": {
        "norad_id": 40875,
        "name": "EUTELSAT 8 WEST B",
        "group": "eutelsat",
        "lat": -0.06675677834592716,
        "lon": -39.81104515939679,
        "alt_km": 35773.35319077036,
        "timestamp": "2025-12-27T15:27:10.814973+00:00",
        "meta_object_name": "EUTELSAT 8 WEST B",
        "meta_object_id": "2015-039B",
        "meta_epoch": "2025-12-27T06:06:52.392384",
        "meta_mean_motion": 1.00271434,
        "meta_eccentricity": 0.00041959,
        "meta_inclination": 0.0657,
        "meta_ra_of_asc_node": 13.5765,
        "meta_arg_of_pericenter": 262.8857,
        "meta_mean_anomaly": 263.2409,
        "meta_ephemeris_type": 0,
        "meta_classification_type": "U",
        "meta_norad_cat_id": 40875,
        "meta_element_set_no": 999,
        "meta_rev_at_epoch": 3793,
        "meta_bstar": 0,
        "meta_mean_motion_dot": -4.3e-07,
        "meta_mean_motion_ddot": 0,
        "tle_line1": "1 40875U 15039B   25361.25477306 -.00000043  00000+0  00000+0 0  9999",
        "tle_line2": "2 40875   0.0657  13.5765 0004195 262.8857 263.2409  1.00271434 37938"
      },
      "geometry": {
        "type": "Point",
        "coordinates": [
          -39.81104515939679,
          -0.06675677834592716
        ]
      }
    },
    {
      "type": "Feature",
      "properties": {
        "norad_id": 41310,
        "name": "EUTELSAT 9B",
        "group": "eutelsat",
        "lat": -0.03840071261467703,
        "lon": -22.80573445186224,
        "alt_km": 35776.796515954244,
        "timestamp": "2025-12-27T15:27:10.814991+00:00",
        "meta_object_name": "EUTELSAT 9B",
        "meta_object_id": "2016-005A",
        "meta_epoch": "2025-12-27T06:13:38.544960",
        "meta_mean_motion": 1.00270104,
        "meta_eccentricity": 0.00047693,
        "meta_inclination": 0.0298,
        "meta_ra_of_asc_node": 51.1117,
        "meta_arg_of_pericenter": 224.8876,
        "meta_mean_anomaly": 282.3931,
        "meta_ephemeris_type": 0,
        "meta_classification_type": "U",
        "meta_norad_cat_id": 41310,
        "meta_element_set_no": 999,
        "meta_rev_at_epoch": 3639,
        "meta_bstar": 0,
        "meta_mean_motion_dot": 8.4e-07,
        "meta_mean_motion_ddot": 0,
        "tle_line1": "1 41310U 16005A   25361.25947390  .00000084  00000+0  00000+0 0  9997",
        "tle_line2": "2 41310   0.0298  51.1117 0004769 224.8876 282.3931  1.00270104 36393"
      },
      "geometry": {
        "type": "Point",
        "coordinates": [
          -22.80573445186224,
          -0.03840071261467703
        ]
      }
    },
    {
      "type": "Feature",
      "properties": {
        "norad_id": 41382,
        "name": "EUTELSAT 65 WEST A",
        "group": "eutelsat",
        "lat": -0.06493682990068608,
        "lon": -97.03201140843335,
        "alt_km": 35776.587889864495,
        "timestamp": "2025-12-27T15:27:10.815005+00:00",
        "meta_object_name": "EUTELSAT 65 WEST A",
        "meta_object_id": "2016-014A",
        "meta_epoch": "2025-12-27T06:13:45.229728",
        "meta_mean_motion": 1.0027075,
        "meta_eccentricity": 0.00024248,
        "meta_inclination": 0.047,
        "meta_ra_of_asc_node": 349.7088,
        "meta_arg_of_pericenter": 289.8289,
        "meta_mean_anomaly": 204.7118,
        "meta_ephemeris_type": 0,
        "meta_classification_type": "U",
        "meta_norad_cat_id": 41382,
        "meta_element_set_no": 999,
        "meta_rev_at_epoch": 3581,
        "meta_bstar": 0,
        "meta_mean_motion_dot": -2.54e-06,
        "meta_mean_motion_ddot": 0,
        "tle_line1": "1 41382U 16014A   25361.25955127 -.00000254  00000+0  00000+0 0  9993",
        "tle_line2": "2 41382   0.0470 349.7088 0002424 289.8289 204.7118  1.00270750 35810"
      },
      "geometry": {
        "type": "Point",
        "coordinates": [
          -97.03201140843335,
          -0.06493682990068608
        ]
      }
    },
    {
      "type": "Feature",
      "properties": {
        "norad_id": 41589,
        "name": "EUTELSAT 117 WEST B",
        "group": "eutelsat",
        "lat": 0.0033987681830809384,
        "lon": -148.84369553961807,
        "alt_km": 35785.8713732461,
        "timestamp": "2025-12-27T15:27:10.815017+00:00",
        "meta_object_name": "EUTELSAT 117 WEST B",
        "meta_object_id": "2016-038B",
        "meta_epoch": "2025-12-27T05:35:47.867424",
        "meta_mean_motion": 1.00273402,
        "meta_eccentricity": 7.7e-06,
        "meta_inclination": 0.0096,
        "meta_ra_of_asc_node": 156.0501,
        "meta_arg_of_pericenter": 198.0121,
        "meta_mean_anomaly": 68.8491,
        "meta_ephemeris_type": 0,
        "meta_classification_type": "U",
        "meta_norad_cat_id": 41589,
        "meta_element_set_no": 999,
        "meta_rev_at_epoch": 3493,
        "meta_bstar": 0,
        "meta_mean_motion_dot": 1.1e-07,
        "meta_mean_motion_ddot": 0,
        "tle_line1": "1 41589U 16038B   25361.23319291  .00000011  00000+0  00000+0 0  9992",
        "tle_line2": "2 41589   0.0096 156.0501 0000077 198.0121  68.8491  1.00273402 34932"
      },
      "geometry": {
        "type": "Point",
        "coordinates": [
          -148.84369553961807,
          0.0033987681830809384
        ]
      }
    },
    {
      "type": "Feature",
      "properties": {
        "norad_id": 42741,
        "name": "EUTELSAT 172B",
        "group": "eutelsat",
        "lat": 0.014150618813503397,
        "lon": 140.15164532386376,
        "alt_km": 35786.21677529839,
        "timestamp": "2025-12-27T15:27:10.815030+00:00",
        "meta_object_name": "EUTELSAT 172B",
        "meta_object_id": "2017-029B",
        "meta_epoch": "2025-12-27T04:00:38.552832",
        "meta_mean_motion": 1.00270223,
        "meta_eccentricity": 1.134e-05,
        "meta_inclination": 0.0381,
        "meta_ra_of_asc_node": 160.9099,
        "meta_arg_of_pericenter": 32.6736,
        "meta_mean_anomaly": 134.4747,
        "meta_ephemeris_type": 0,
        "meta_classification_type": "U",
        "meta_norad_cat_id": 42741,
        "meta_element_set_no": 999,
        "meta_rev_at_epoch": 3200,
        "meta_bstar": 0,
        "meta_mean_motion_dot": 1.7e-07,
        "meta_mean_motion_ddot": 0,
        "tle_line1": "1 42741U 17029B   25361.16711288  .00000017  00000+0  00000+0 0  9994",
        "tle_line2": "2 42741   0.0381 160.9099 0000113  32.6736 134.4747  1.00270223 32000"
      },
      "geometry": {
        "type": "Point",
        "coordinates": [
          140.15164532386376,
          0.014150618813503397
        ]
      }
    }
  ]
}